[{"OBJECT_NAME":"TIANMU-1 10","OBJECT_ID":"2023-101D","EPOCH":"2026-03-03T03:46:57.388224","MEAN_MOTION":15.29203521,"ECCENTRICITY":0.0006846,"INCLINATION":97.2764,"RA_OF_ASC_NODE":115.4456,"ARG_OF_PERICENTER":151.4354,"MEAN_ANOMALY":208.7263,"EPHEMERIS_TYPE":0,"CLASSIFICATION_TYPE":"U","NORAD_CAT_ID":57402,"ELEMENT_SET_NO":999,"REV_AT_EPOCH":14543,"BSTAR":0.00032065,"MEAN_MOTION_DOT":9.021e-5,"MEAN_MOTION_DDOT":0},{"OBJECT_NAME":"FENGYUN 3F","OBJECT_ID":"2023-111A","EPOCH":"2026-03-03T04:55:19.365600","MEAN_MOTION":14.19917566,"ECCENTRICITY":0.0001339,"INCLINATION":98.6941,"RA_OF_ASC_NODE":134.1492,"ARG_OF_PERICENTER":82.8951,"MEAN_ANOMALY":277.2377,"EPHEMERIS_TYPE":0,"CLASSIFICATION_TYPE":"U","NORAD_CAT_ID":57490,"ELEMENT_SET_NO":999,"REV_AT_EPOCH":13382,"BSTAR":5.5571e-5,"MEAN_MOTION_DOT":7.5e-7,"MEAN_MOTION_DDOT":0},{"OBJECT_NAME":"ARKTIKA-M 2","OBJECT_ID":"2023-198A","EPOCH":"2026-03-03T01:58:58.035360","MEAN_MOTION":2.00614888,"ECCENTRICITY":0.6876964,"INCLINATION":63.2203,"RA_OF_ASC_NODE":166.1216,"ARG_OF_PERICENTER":267.7841,"MEAN_ANOMALY":18.8417,"EPHEMERIS_TYPE":0,"CLASSIFICATION_TYPE":"U","NORAD_CAT_ID":58584,"ELEMENT_SET_NO":999,"REV_AT_EPOCH":1619,"BSTAR":0,"MEAN_MOTION_DOT":1.37e-6,"MEAN_MOTION_DDOT":0},{"OBJECT_NAME":"TIANMU-1 11","OBJECT_ID":"2023-205A","EPOCH":"2026-03-03T04:22:47.333856","MEAN_MOTION":15.25771911,"ECCENTRICITY":0.0009775,"INCLINATION":97.3546,"RA_OF_ASC_NODE":85.439,"ARG_OF_PERICENTER":30.0633,"MEAN_ANOMALY":330.1164,"EPHEMERIS_TYPE":0,"CLASSIFICATION_TYPE":"U","NORAD_CAT_ID":58645,"ELEMENT_SET_NO":999,"REV_AT_EPOCH":12135,"BSTAR":0.00028313,"MEAN_MOTION_DOT":7.168e-5,"MEAN_MOTION_DDOT":0},{"OBJECT_NAME":"TIANMU-1 12","OBJECT_ID":"2023-205B","EPOCH":"2026-03-03T05:09:01.016640","MEAN_MOTION":15.25694585,"ECCENTRICITY":0.000757,"INCLINATION":97.3534,"RA_OF_ASC_NODE":85.2511,"ARG_OF_PERICENTER":16.8076,"MEAN_ANOMALY":343.3412,"EPHEMERIS_TYPE":0,"CLASSIFICATION_TYPE":"U","NORAD_CAT_ID":58646,"ELEMENT_SET_NO":999,"REV_AT_EPOCH":12134,"BSTAR":0.00031118,"MEAN_MOTION_DOT":7.864e-5,"MEAN_MOTION_DDOT":0},{"OBJECT_NAME":"TIANMU-1 13","OBJECT_ID":"2023-205C","EPOCH":"2026-03-03T04:19:22.221984","MEAN_MOTION":15.25743579,"ECCENTRICITY":0.0007208,"INCLINATION":97.3562,"RA_OF_ASC_NODE":85.4532,"ARG_OF_PERICENTER":358.3705,"MEAN_ANOMALY":1.7508,"EPHEMERIS_TYPE":0,"CLASSIFICATION_TYPE":"U","NORAD_CAT_ID":58647,"ELEMENT_SET_NO":999,"REV_AT_EPOCH":12133,"BSTAR":0.00029206,"MEAN_MOTION_DOT":7.386e-5,"MEAN_MOTION_DDOT":0},{"OBJECT_NAME":"TIANMU-1 14","OBJECT_ID":"2023-205D","EPOCH":"2026-03-03T05:31:27.099264","MEAN_MOTION":15.25721508,"ECCENTRICITY":0.0008122,"INCLINATION":97.3497,"RA_OF_ASC_NODE":84.7772,"ARG_OF_PERICENTER":1.1621,"MEAN_ANOMALY":358.9635,"EPHEMERIS_TYPE":0,"CLASSIFICATION_TYPE":"U","NORAD_CAT_ID":58648,"ELEMENT_SET_NO":999,"REV_AT_EPOCH":12134,"BSTAR":0.0002981,"MEAN_MOTION_DOT":7.537e-5,"MEAN_MOTION_DDOT":0},{"OBJECT_NAME":"TIANMU-1 19","OBJECT_ID":"2023-208A","EPOCH":"2026-03-03T04:31:41.690208","MEAN_MOTION":15.29665289,"ECCENTRICITY":0.0004353,"INCLINATION":97.4387,"RA_OF_ASC_NODE":178.1701,"ARG_OF_PERICENTER":344.9787,"MEAN_ANOMALY":15.1324,"EPHEMERIS_TYPE":0,"CLASSIFICATION_TYPE":"U","NORAD_CAT_ID":58660,"ELEMENT_SET_NO":999,"REV_AT_EPOCH":12111,"BSTAR":0.0004278,"MEAN_MOTION_DOT":0.0001223,"MEAN_MOTION_DDOT":0},{"OBJECT_NAME":"TIANMU-1 20","OBJECT_ID":"2023-208B","EPOCH":"2026-03-03T04:16:22.459008","MEAN_MOTION":15.30854606,"ECCENTRICITY":0.0006662,"INCLINATION":97.4325,"RA_OF_ASC_NODE":178.6866,"ARG_OF_PERICENTER":350.7483,"MEAN_ANOMALY":9.3634,"EPHEMERIS_TYPE":0,"CLASSIFICATION_TYPE":"U","NORAD_CAT_ID":58661,"ELEMENT_SET_NO":999,"REV_AT_EPOCH":12119,"BSTAR":0.00038897,"MEAN_MOTION_DOT":0.00011533,"MEAN_MOTION_DDOT":0},{"OBJECT_NAME":"TIANMU-1 21","OBJECT_ID":"2023-208C","EPOCH":"2026-03-03T06:00:27.487296","MEAN_MOTION":15.3284093,"ECCENTRICITY":0.0006403,"INCLINATION":97.4379,"RA_OF_ASC_NODE":181.0092,"ARG_OF_PERICENTER":343.7694,"MEAN_ANOMALY":16.3342,"EPHEMERIS_TYPE":0,"CLASSIFICATION_TYPE":"U","NORAD_CAT_ID":58662,"ELEMENT_SET_NO":999,"REV_AT_EPOCH":12132,"BSTAR":0.00043266,"MEAN_MOTION_DOT":0.00013661,"MEAN_MOTION_DDOT":0},{"OBJECT_NAME":"TIANMU-1 22","OBJECT_ID":"2023-208D","EPOCH":"2026-03-03T04:54:47.223936","MEAN_MOTION":15.2929379,"ECCENTRICITY":0.0003639,"INCLINATION":97.4381,"RA_OF_ASC_NODE":178.2014,"ARG_OF_PERICENTER":16.9528,"MEAN_ANOMALY":343.1833,"EPHEMERIS_TYPE":0,"CLASSIFICATION_TYPE":"U","NORAD_CAT_ID":58663,"ELEMENT_SET_NO":999,"REV_AT_EPOCH":12112,"BSTAR":0.0004036,"MEAN_MOTION_DOT":0.000114,"MEAN_MOTION_DDOT":0},{"OBJECT_NAME":"TIANMU-1 15","OBJECT_ID":"2024-004A","EPOCH":"2026-03-03T03:53:46.633920","MEAN_MOTION":15.25714698,"ECCENTRICITY":0.0007212,"INCLINATION":97.4659,"RA_OF_ASC_NODE":248.4101,"ARG_OF_PERICENTER":12.9282,"MEAN_ANOMALY":347.214,"EPHEMERIS_TYPE":0,"CLASSIFICATION_TYPE":"U","NORAD_CAT_ID":58700,"ELEMENT_SET_NO":999,"REV_AT_EPOCH":11960,"BSTAR":0.00029117,"MEAN_MOTION_DOT":7.355e-5,"MEAN_MOTION_DDOT":0},{"OBJECT_NAME":"TIANMU-1 16","OBJECT_ID":"2024-004B","EPOCH":"2026-03-03T05:04:38.559360","MEAN_MOTION":15.25749085,"ECCENTRICITY":0.0005754,"INCLINATION":97.4602,"RA_OF_ASC_NODE":247.787,"ARG_OF_PERICENTER":18.3431,"MEAN_ANOMALY":341.8013,"EPHEMERIS_TYPE":0,"CLASSIFICATION_TYPE":"U","NORAD_CAT_ID":58701,"ELEMENT_SET_NO":999,"REV_AT_EPOCH":11961,"BSTAR":0.00032442,"MEAN_MOTION_DOT":8.211e-5,"MEAN_MOTION_DDOT":0},{"OBJECT_NAME":"TIANMU-1 17","OBJECT_ID":"2024-004C","EPOCH":"2026-03-03T04:39:25.261632","MEAN_MOTION":15.25785637,"ECCENTRICITY":0.0004976,"INCLINATION":97.4634,"RA_OF_ASC_NODE":248.22,"ARG_OF_PERICENTER":21.6849,"MEAN_ANOMALY":338.4599,"EPHEMERIS_TYPE":0,"CLASSIFICATION_TYPE":"U","NORAD_CAT_ID":58702,"ELEMENT_SET_NO":999,"REV_AT_EPOCH":11960,"BSTAR":0.0003385,"MEAN_MOTION_DOT":8.58e-5,"MEAN_MOTION_DDOT":0},{"OBJECT_NAME":"TIANMU-1 18","OBJECT_ID":"2024-004D","EPOCH":"2026-03-03T04:17:44.912256","MEAN_MOTION":15.25736898,"ECCENTRICITY":0.0004388,"INCLINATION":97.4651,"RA_OF_ASC_NODE":248.4156,"ARG_OF_PERICENTER":22.9577,"MEAN_ANOMALY":337.1856,"EPHEMERIS_TYPE":0,"CLASSIFICATION_TYPE":"U","NORAD_CAT_ID":58703,"ELEMENT_SET_NO":999,"REV_AT_EPOCH":11960,"BSTAR":0.00032848,"MEAN_MOTION_DOT":8.31e-5,"MEAN_MOTION_DDOT":0},{"OBJECT_NAME":"INSAT-3DS","OBJECT_ID":"2024-033A","EPOCH":"2026-03-03T00:46:24.112128","MEAN_MOTION":1.00270353,"ECCENTRICITY":0.0002302,"INCLINATION":0.0592,"RA_OF_ASC_NODE":265.291,"ARG_OF_PERICENTER":89.9379,"MEAN_ANOMALY":259.2358,"EPHEMERIS_TYPE":0,"CLASSIFICATION_TYPE":"U","NORAD_CAT_ID":58990,"ELEMENT_SET_NO":999,"REV_AT_EPOCH":4600,"BSTAR":0,"MEAN_MOTION_DOT":-1.71e-6,"MEAN_MOTION_DDOT":0},{"OBJECT_NAME":"METEOR-M2 4","OBJECT_ID":"2024-039A","EPOCH":"2026-03-03T04:15:45.511776","MEAN_MOTION":14.22415894,"ECCENTRICITY":0.0008061,"INCLINATION":98.6895,"RA_OF_ASC_NODE":22.8775,"ARG_OF_PERICENTER":112.7089,"MEAN_ANOMALY":247.4941,"EPHEMERIS_TYPE":0,"CLASSIFICATION_TYPE":"U","NORAD_CAT_ID":59051,"ELEMENT_SET_NO":999,"REV_AT_EPOCH":10419,"BSTAR":3.6986e-5,"MEAN_MOTION_DOT":3.9e-7,"MEAN_MOTION_DDOT":0}]
