TIANMU-1 10             
1 57402U 23101D   26062.15760866  .00009021  00000+0  32065-3 0  9990
2 57402  97.2764 115.4456 0006846 151.4354 208.7263 15.29203521145433
FENGYUN 3F              
1 57490U 23111A   26062.20508525  .00000075  00000+0  55571-4 0  9994
2 57490  98.6941 134.1492 0001339  82.8951 277.2377 14.19917566133828
ARKTIKA-M 2             
1 58584U 23198A   26062.08261615  .00000137  00000+0  00000+0 0  9997
2 58584  63.2203 166.1216 6876964 267.7841  18.8417  2.00614888 16195
TIANMU-1 11             
1 58645U 23205A   26062.18249229  .00007168  00000+0  28313-3 0  9994
2 58645  97.3546  85.4390 0009775  30.0633 330.1164 15.25771911121355
TIANMU-1 12             
1 58646U 23205B   26062.21459510  .00007864  00000+0  31118-3 0  9995
2 58646  97.3534  85.2511 0007570  16.8076 343.3412 15.25694585121342
TIANMU-1 13             
1 58647U 23205C   26062.18011831  .00007386  00000+0  29206-3 0  9996
2 58647  97.3562  85.4532 0007208 358.3705   1.7508 15.25743579121338
TIANMU-1 14             
1 58648U 23205D   26062.23017476  .00007537  00000+0  29810-3 0  9993
2 58648  97.3497  84.7772 0008122   1.1621 358.9635 15.25721508121347
TIANMU-1 19             
1 58660U 23208A   26062.18867697  .00012230  00000+0  42780-3 0  9999
2 58660  97.4387 178.1701 0004353 344.9787  15.1324 15.29665289121112
TIANMU-1 20             
1 58661U 23208B   26062.17803772  .00011533  00000+0  38897-3 0  9992
2 58661  97.4325 178.6866 0006662 350.7483   9.3634 15.30854606121197
TIANMU-1 21             
1 58662U 23208C   26062.25031814  .00013661  00000+0  43266-3 0  9992
2 58662  97.4379 181.0092 0006403 343.7694  16.3342 15.32840930121321
TIANMU-1 22             
1 58663U 23208D   26062.20471324  .00011400  00000+0  40360-3 0  9993
2 58663  97.4381 178.2014 0003639  16.9528 343.1833 15.29293790121126
TIANMU-1 15             
1 58700U 24004A   26062.16234530  .00007355  00000+0  29117-3 0  9992
2 58700  97.4659 248.4101 0007212  12.9282 347.2140 15.25714698119604
TIANMU-1 16             
1 58701U 24004B   26062.21155740  .00008211  00000+0  32442-3 0  9991
2 58701  97.4602 247.7870 0005754  18.3431 341.8013 15.25749085119611
TIANMU-1 17             
1 58702U 24004C   26062.19404238  .00008580  00000+0  33850-3 0  9991
2 58702  97.4634 248.2200 0004976  21.6849 338.4599 15.25785637119608
TIANMU-1 18             
1 58703U 24004D   26062.17899204  .00008310  00000+0  32848-3 0  9998
2 58703  97.4651 248.4156 0004388  22.9577 337.1856 15.25736898119606
INSAT-3DS               
1 58990U 24033A   26062.03222352 -.00000171  00000+0  00000+0 0  9996
2 58990   0.0592 265.2910 0002302  89.9379 259.2358  1.00270353 46001
METEOR-M2 4             
1 59051U 24039A   26062.17761009  .00000039  00000+0  36986-4 0  9992
2 59051  98.6895  22.8775 0008061 112.7089 247.4941 14.22415894104197
